NUSAT-4 (ADA)           
1 43195U 18015D   21182.90541938  .00001933  00000-0  78138-4 0  9997
2 43195  97.4890 316.5058 0016390 197.2881 281.6366 15.25871577189721
NUSAT-5 (MARYAM)        
1 43204U 18015K   21182.90344215  .00002017  00000-0  80845-4 0  9999
2 43204  97.4899 316.8813 0015647 198.9876 279.6541 15.26121410189344
GAOFEN 1-02             
1 43259U 18031A   21182.88818471  .00000106  00000-0  22425-4 0  9991
2 43259  97.9326 261.3237 0005441  67.6315 292.5460 14.76522629175417
GAOFEN 1-03             
1 43260U 18031B   21182.93447950  .00000115  00000-0  23746-4 0  9996
2 43260  97.9323 261.3566 0006774 120.4169 239.7715 14.76514450175415
GAOFEN 1-04             
1 43262U 18031D   21182.90967071  .00000044  00000-0  13496-4 0  9998
2 43262  97.9323 261.3366 0005972  85.1597 275.0486 14.76513236175404
SENTINEL-3B             
1 43437U 18039A   21182.80468023 -.00000006  00000-0  15531-4 0  9993
2 43437  98.6285 250.1137 0001338 114.7267 245.4052 14.26736223165834
GAOFEN 5                
1 43461U 18043A   21182.91216144  .00000027  00000-0  15829-4 0  9994
2 43461  98.2332 121.2898 0001228 346.2216  13.8957 14.57826983167588
GAOFEN 6                
1 43484U 18048A   21182.93788385  .00000077  00000-0  18345-4 0  9998
2 43484  97.9578 263.9356 0007972 251.8952 108.1390 14.76521697166116
GAOFEN 11-1             
1 43585U 18063A   21182.90564438  .00000894  00000-0  40248-4 0  9999
2 43585  97.3527 261.7487 0014032 329.1211 119.8266 15.23588719163017
AEOLUS                  
1 43600U 18066A   21182.93154596  .00039615  00000-0  15892-3 0  9992
2 43600  96.7134 189.5475 0002209 230.6204 129.4873 15.86401853165540
ICESAT-2                
1 43613U 18070A   21182.94336299  .00000712  00000-0  25670-4 0  9996
2 43613  92.0011 163.6507 0002521  87.2370 272.9168 15.28273141155849
HYSIS                   
1 43719U 18096A   21182.92164245  .00000144  00000-0  26614-4 0  9997
2 43719  97.8579 248.2851 0006003 115.3435 244.8379 14.78617475139754
KAZSTSAT                
1 43783U 18099AB  21182.76370528 -.00000043  00000-0  12377-5 0  9997
2 43783  97.6752 252.2203 0008308  10.9275 349.2124 14.93664153140453
SAUDISAT 5A             
1 43831U 18102A   21182.88667529  .00000369  00000-0  27760-4 0  9990
2 43831  97.5343 258.4329 0012836 303.7495 186.2216 15.08325962141324
SAUDISAT 5B             
1 43833U 18102C   21182.93166075  .00000191  00000-0  16131-4 0  9991
2 43833  97.5350 259.1172 0013798 310.9228 101.6849 15.08763196141362
GAOFEN 10R              
1 44622U 19066A   21182.90595834  .00000140  00000-0  24880-4 0  9998
2 44622  97.8576 123.5548 0001677  84.1292 276.0110 14.80615389 94136
CARTOSAT-3              
1 44804U 19081A   21182.91930737  .00000574  00000-0  30436-4 0  9998
2 44804  97.4450 245.5390 0013528   8.9461 103.5563 15.19261030 88418
GAOFEN 12-1             
1 44819U 19082A   21182.91511459  .00000031  00000-0  10811-4 0  9994
2 44819  97.8841 204.9303 0001402 107.0581 253.0773 14.80265144 86089
NUSAT-7 (SOPHIE)        
1 45017U 20003B   21182.88331117  .00001999  00000-0  70317-4 0  9998
2 45017  97.2634 247.5836 0013939 165.1992 305.4561 15.30417205 81554
NUSAT-8 (MARIE)         
1 45018U 20003C   21182.93639435  .00002381  00000-0  78544-4 0  9995
2 45018  97.2760 247.5856 0012579 167.6758   5.3537 15.32338208 81526
NUSAT-6 (HYPATIA)       
1 46272U 20061A   21182.93924063  .00001139  00000-0  52650-4 0  9996
2 46272  97.3678 256.3375 0006224 212.3227 147.7646 15.22171757 45874
NEMO-HD                 
1 46277U 20061F   21182.89544713  .00000313  00000-0  19478-4 0  9990
2 46277  97.4310 256.3625 0001270  33.3251  79.7810 15.16390002 45725
NUSAT-12 (DOROTHY)      
1 46827U 20079A   21182.87632284  .00002704  00000-0  90452-4 0  9996
2 46827  97.2397 255.8553 0011345 115.5702 357.3865 15.31769338 36376
NUSAT-9 (ALICE)         
1 46828U 20079B   21182.90768576  .00002425  00000-0  80099-4 0  9991
2 46828  97.2260 255.9264 0004608 136.4847 283.7205 15.32331310 36402
NUSAT-11 (CORA)         
1 46829U 20079C   21182.92820885  .00002464  00000-0  81258-4 0  9997
2 46829  97.2323 255.9390 0009339 126.7494 347.9914 15.32343297 36394
NUSAT-15 (KATHERINE)    
1 46830U 20079D   21182.90690397  .00002084  00000-0  69165-4 0  9991
2 46830  97.2457 256.4185 0006372 100.6594  15.7303 15.32324089 36400
NUSAT-14 (HEDY)         
1 46831U 20079E   21182.91469813  .00002219  00000-0  73308-4 0  9994
2 46831  97.2425 256.1684 0010614 123.3706 323.7377 15.32381672 36390
NUSAT-10 (CAROLINE)     
1 46832U 20079F   21182.87360993  .00002310  00000-0  76053-4 0  9991
2 46832  97.2427 256.0813 0010705 123.8544 346.3908 15.32442330 36381
NUSAT-13 (EMMY)         
1 46833U 20079G   21182.91338059  .00002283  00000-0  75285-4 0  9990
2 46833  97.2426 256.1897 0010034 124.4824 353.3460 15.32410161 36396
NUSAT-17 (MARY)         
1 46835U 20079J   21182.87882372  .00002297  00000-0  76513-4 0  9999
2 46835  97.2423 256.0859 0010332 136.9635 353.3516 15.32082348 36384
NUSAT-18 (VERA)         
1 46836U 20079K   21182.94950551  .00001886  00000-0  62743-4 0  9996
2 46836  97.2435 256.3098 0010583 143.1584  29.9732 15.32339555 36401
NUSAT-16 (LISE)         
1 46840U 20079P   21182.89531352  .00001796  00000-0  59936-4 0  9999
2 46840  97.2444 256.2374 0007807 139.5472 333.6417 15.32323587 36393
SENTINEL-6              
1 46984U 20086A   21182.64579139 -.00000061  00000-0  00000-0 0  9993
2 46984  66.0432 297.6705 0007965 263.8643  96.1462 12.80930178 28433
GAOFEN 12-2             
1 48079U 21026A   21182.94980269  .00000011  00000-0  81852-5 0  9991
2 48079  97.8651 174.9633 0001769  52.0481 308.0905 14.80270717 13772
SARSAT 7 (NOAA 15)      
1 25338U 98030A   21182.89041273  .00000085  00000-0  54073-4 0  9995
2 25338  98.6805 211.2855 0009405 234.9019 125.1279 14.26041801203053
METEOSAT-8 (MSG-1)      
1 27509U 02040B   21182.77921463  .00000130  00000-0  00000-0 0  9996
2 27509   7.3982  52.4254 0001707  20.0104 169.5010  1.00275823 69092
GPS BIIR-08             
1 27663U 03005A   21182.00678631 -.00000069  00000-0  00000-0 0  9993
2 27663  55.7625 287.0017 0120369  38.1489 133.6725  2.00558558134963
GPS BIIR-11             
1 28190U 04009A   21182.29350854 -.00000090  00000-0  00000-0 0  9993
2 28190  56.1788 347.8737 0090768 107.9012  68.2698  2.00568135126600
GPS BIIR-13             
1 28474U 04045A   21182.41422047 -.00000101  00000-0  00000-0 0  9999
2 28474  55.1987  37.5573 0203972 273.5582 264.3082  2.00560209122090
SARSAT 10 (NOAA 18)     
1 28654U 05018A   21182.89531605  .00000091  00000-0  73611-4 0  9992
2 28654  98.9931 247.8170 0013360 238.8025 121.1837 14.12618546830480
GPS BIIR-14M            
1 28874U 05038A   21182.76587666 -.00000089  00000-0  00000-0 0  9998
2 28874  56.2615 345.2703 0135740 270.2986 270.5080  2.00570320115507
METEOSAT-9 (MSG-2)      
1 28912U 05049B   21182.84347970  .00000012  00000-0  00000-0 0  9999
2 28912   5.2425  68.3809 0001015  20.3687 138.4441  1.00267508 56879
GOES 13                 
1 29155U 06018A   21182.85499484  .00000038  00000-0  00000-0 0  9993
2 29155   0.0867 246.6653 0004628 298.2981 104.1793  1.00269436 25212
SARSAT 11 (METOP-A)     
1 29499U 06044A   21182.91294131 -.00000005  00000-0  16690-4 0  9993
2 29499  98.4704 221.6050 0000836 111.8752  17.0828 14.21503046762619
GPS BIIR-16M            
1 29601U 06052A   21182.58039712 -.00000070  00000-0  00000-0 0  9998
2 29601  55.7577 285.9059 0080623  69.4214 291.4694  2.00558846107077
GPS BIIR-17M            
1 32260U 07047A   21182.38682960  .00000057  00000-0  00000-0 0  9999
2 32260  53.2396 155.0921 0130985  56.4267 304.7929  2.00567269100475
GPS BIIR-18M            
1 32384U 07062A   21181.96280280 -.00000089  00000-0  00000-0 0  9991
2 32384  56.3697 346.0198 0017703 130.7044  50.8170  2.00570891 99164
SARSAT 12 (NOAA 19)     
1 33591U 09005A   21182.93076756  .00000078  00000-0  67595-4 0  9993
2 33591  99.1821 203.9946 0015011  92.0707 268.2183 14.12479305638709
GOES 14                 
1 35491U 09033A   21182.57524722 -.00000097  00000-0  00000-0 0  9992
2 35491   0.3405 107.2069 0010834 101.2176 174.2766  1.00271940 43953
GOES 15                 
1 36411U 10008A   21182.74543016  .00000052  00000-0  00000-0 0  9995
2 36411   0.1578 126.8279 0003971 294.9543 358.3542  1.00278656 41515
GLONASS-K 1             
1 37372U 11009A   21181.66579551 -.00000068  00000-0  00000-0 0  9995
2 37372  65.9356  15.1167 0014455 226.1676 105.3681  2.13052381 80465
GPS BIIF-2              
1 37753U 11036A   21181.85416667 -.00000099  00000-0  00000-0 0  9991
2 37753  56.4225  42.4225 0108418  48.7747 204.4354  2.00563382 72920
GSAT0101 (GALILEO-PFM)  
1 37846U 11060A   21179.53995179 -.00000094  00000-0  00000+0 0  9997
2 37846  56.8437  30.9774 0003443  35.7552 324.3182  1.70475276 60316
GSAT0102 (GALILEO-FM2)  
1 37847U 11060B   21182.10463674 -.00000093  00000-0  00000-0 0  9995
2 37847  56.8462  30.9067 0003144 359.2539 181.1181  1.70475584 60238
LUCH 5A                 
1 37951U 11074B   21182.94777135 -.00000049  00000-0  00000-0 0  9999
2 37951   4.1547 105.0228 0005822 347.1304 336.3183  1.00268679 35021
METEOSAT-10 (MSG-3)     
1 38552U 12035B   21182.84461376  .00000058  00000-0  00000-0 0  9990
2 38552   1.2102  12.4507 0001478 104.9176 116.1404  1.00266624 32692
SARSAT 13 (METOP-B)     
1 38771U 12049A   21182.90364373 -.00000015  00000-0  13212-4 0  9991
2 38771  98.7139 242.7977 0001101  38.4737 134.4842 14.21485975455936
GPS BIIF-3              
1 38833U 12053A   21180.98646176  .00000024  00000-0  00000-0 0  9991
2 38833  53.5712 217.8028 0110184  41.6511 319.2439  2.00557183 63079
GSAT0103 (GALILEO-FM3)  
1 38857U 12055A   21180.75410558  .00000041  00000-0  00000-0 0  9996
2 38857  55.0504 151.3995 0004946 271.9886  87.9126  1.70473779 54095
